KEPLER-21               
1 56218U 23054AS  26068.80780274  .00079942  00000+0  58135-3 0  9999
2 56218  97.2962 342.6260 0004885  55.6816 304.4910 15.73096759163494
STARLINK-11688 [DTC]    
1 63756U 25089F   26068.04330119  .00190737  00000+0  14531-2 0  9996
2 63756  42.9994 296.1574 0001794 263.1827  96.8837 15.70888654 49927
