[{"OBJECT_NAME":"KEPLER-21","OBJECT_ID":"2023-054AS","EPOCH":"2026-03-09T19:23:14.157600","MEAN_MOTION":15.73096759,"ECCENTRICITY":0.00048854,"INCLINATION":97.2962,"RA_OF_ASC_NODE":342.626,"ARG_OF_PERICENTER":55.6816,"MEAN_ANOMALY":304.491,"EPHEMERIS_TYPE":0,"CLASSIFICATION_TYPE":"U","NORAD_CAT_ID":56218,"ELEMENT_SET_NO":999,"REV_AT_EPOCH":16349,"BSTAR":0.0005813485,"MEAN_MOTION_DOT":0.00079942,"MEAN_MOTION_DDOT":0},{"OBJECT_NAME":"STARLINK-11688 [DTC]","OBJECT_ID":"2025-089F","EPOCH":"2026-03-09T01:02:21.222816","MEAN_MOTION":15.70888654,"ECCENTRICITY":0.00017941,"INCLINATION":42.9994,"RA_OF_ASC_NODE":296.1574,"ARG_OF_PERICENTER":263.1827,"MEAN_ANOMALY":96.8837,"EPHEMERIS_TYPE":0,"CLASSIFICATION_TYPE":"U","NORAD_CAT_ID":63756,"ELEMENT_SET_NO":999,"REV_AT_EPOCH":4992,"BSTAR":0.0014531122,"MEAN_MOTION_DOT":0.00190737,"MEAN_MOTION_DDOT":0}]
